LEMUR-2-ROUNDTRIPPER    
1 62711U 25009DG  26169.75725424  .00006878  00000+0  50442-3 0  9999
2 62711  97.7255 252.4346 0005507 126.2997 233.8738 15.03813669 77867
LEMUR-2-MYNAMEISJEFF    
1 62712U 25009DH  26169.75565687  .00006450  00000+0  47339-3 0  9990
2 62712  97.7300 252.8149 0003749 147.3297 212.8161 15.03818635 77862
LEMUR-2-LEIA-PHILIP     
1 63246U 25052AN  26169.94086240  .00000534  00000+0  51004-4 0  9997
2 63246  97.6836  61.8626 0002736 204.2508 155.8586 14.97322233 68930
LEMUR-2-LIA-MARTIN      
1 63248U 25052AQ  26169.94535172  .00002738  00000+0  23793-3 0  9993
2 63248  97.6886  62.3447 0002993 154.6413 205.4957 14.97812658 68942
LEMUR-2-DELOITTE-1      
1 63259U 25052BB  26169.25383080  .00003722  00000+0  32332-3 0  9991
2 63259  97.6922  61.9920 0003455  94.8418 265.3198 14.97612095 68855
LEMUR-2-EMERSONROSE     
1 63261U 25052BD  26169.96219193  .00002786  00000+0  23422-3 0  9994
2 63261  97.6880  63.2517 0001718  69.2056 290.9351 14.99088569 69000
LEMUR-2-MARACHE-FRAN    
1 63262U 25052BE  26169.60278995  .00004059  00000+0  33013-3 0  9993
2 63262  97.6937  63.2169 0005223  18.0876 342.0533 15.00113345 68974
LEMUR-2-THEFALCONER     
1 63264U 25052BG  26169.94860062  .00002363  00000+0  20826-3 0  9998
2 63264  97.6854  62.2952 0002427  27.6603 332.4748 14.97396552 68957
LEMUR-2-UNTITLED-SC     
1 63351U 25061A   26169.93991182  .00003361  00000+0  19094-3 0  9996
2 63351  97.5637 145.2887 0016945 257.7124 102.2210 15.13487327 67850
LEMUR-2-ESPERANZA       
1 63352U 25061B   26169.91693856  .00002470  00000+0  14102-3 0  9997
2 63352  97.5645 145.3599 0016537 257.2672 102.6711 15.13579125 67859
LEMUR-2-KREMPEL-BRO2    
1 63353U 25061C   26169.74514384  .00003313  00000+0  18550-3 0  9995
2 63353  97.5692 145.7247 0017552 249.6298 110.3048 15.14015502 67846
LEMUR-2-THERMORAPTOR    
1 63354U 25061D   26169.92539268  .00002905  00000+0  16275-3 0  9992
2 63354  97.5695 145.9799 0017266 247.6830 112.2571 15.14096436 67876
LEMUR-2-NEUROSPICY      
1 63355U 25061E   26169.89693503  .00003018  00000+0  16857-3 0  9994
2 63355  97.5625 145.5764 0015059 251.3644 108.5952 15.14211034 67875
LEMUR-2-TILLINFINITY    
1 63356U 25061F   26169.93153826  .00003117  00000+0  17103-3 0  9994
2 63356  97.5609 145.9023 0016452 238.1314 121.8317 15.14797612 67903
LEMUR-2-KREMPEL-BRO1    
1 63357U 25061G   26169.37670503  .00002783  00000+0  15392-3 0  9995
2 63357  97.5612 145.2664 0017049 242.0323 117.9183 15.14599257 67811
LEMUR-2-LANGER2SPACE    
1 63358U 25061H   26169.73384405  .00003220  00000+0  17916-3 0  9990
2 63358  97.5615 145.4349 0014987 250.2947 109.6668 15.14298691 67856
LEMUR-2-BALTO           
1 63395U 25052BH  26169.45408561  .00004868  00000+0  39494-3 0  9994
2 63395  97.6897  63.0474 0006901  54.5649 305.6218 15.00098869 68956
LEMUR-2-KRISH           
1 64561U 25135AK  26169.74627158  .00004107  00000+0  36923-3 0  9999
2 64561  97.7756 284.6117 0001716  97.9640 262.1776 14.96222499 54158
LEMUR-2-HUBBLE-4        
1 64565U 25135AP  26169.87868297  .00001211  00000+0  12138-3 0  9993
2 64565  97.7701 283.7640 0000910 294.1434  65.9691 14.93202377 54122
LEMUR-2-SEJONG-2        
1 64586U 25135BL  26169.97630404  .00003243  00000+0  28907-3 0  9992
2 64586  97.7687 284.9847 0003658 331.0378  29.0640 14.96706456 54215
LEMUR-2-HUBBLE-5        
1 64840U 25135BT  26169.89865719  .00000820  00000+0  81989-4 0  9993
2 64840  97.7720 284.4205 0004947 347.6565  12.4533 14.94139337 54169
LEMUR-2-KARENDARRELL    
1 64841U 25135BU  26169.78575277  .00006197  00000+0  50090-3 0  9990
2 64841  97.7684 285.9908 0009801 195.8683 164.2235 15.00129024 54258
LEMUR-2-LUCILLE-ROSE    
1 65403U 25135BV  26169.29250830  .00004805  00000+0  38910-3 0  9997
2 65403  97.7766 285.5191 0011255 278.7265  81.2683 15.00164541 48809
LEMUR-2-AFFIE-WAUWIE    
1 66295U 25248C   26169.88727090  .00013619  00000+0  51150-3 0  9998
2 66295  45.3929 105.7764 0007202  96.8263 263.3445 15.27193315 34851
LEMUR-2-DEANANDMAEVE    
1 66678U 25276N   26169.96074323  .00005304  00000+0  25115-3 0  9991
2 66678  97.4208 243.4070 0005520   8.5807 351.5522 15.19750218 30684
LEMUR-2-STAS-GORBUK     
1 66686U 25276W   26169.71222836  .00004251  00000+0  20403-3 0  9992
2 66686  97.4243 243.2174 0004968  10.2941 349.8395 15.19394322 30643
LEMUR-2-TEODOR          
1 66768U 25276DG  26169.89169785  .00004669  00000+0  21326-3 0  9993
2 66768  97.4148 243.6324 0002206 115.2150 244.9315 15.21065013 30709
LEMUR-2-LAILA           
1 66776U 25276DQ  26169.93114114  .00004533  00000+0  20580-3 0  9994
2 66776  97.4170 243.7931 0002312 133.7151 226.4277 15.21287334 30717
LEMUR-2-CELIJO-SB-PK    
1 66781U 25276DW  26169.77100644  .00004746  00000+0  38602-3 0  9995
2 66781  97.5245 240.4969 0008683 128.7901 231.4100 14.99992221 22866
